[{"OBJECT_NAME":"GAOFEN-9 05","OBJECT_ID":"2020-058A","EPOCH":"2026-03-10T00:01:50.876256","MEAN_MOTION":15.30293976,"ECCENTRICITY":0.0010522,"INCLINATION":97.2228,"RA_OF_ASC_NODE":111.963,"ARG_OF_PERICENTER":91.0204,"MEAN_ANOMALY":269.2242,"EPHEMERIS_TYPE":0,"CLASSIFICATION_TYPE":"U","NORAD_CAT_ID":46232,"ELEMENT_SET_NO":999,"REV_AT_EPOCH":30843,"BSTAR":0.00025120304,"MEAN_MOTION_DOT":7.299e-5,"MEAN_MOTION_DDOT":0},{"OBJECT_NAME":"STARLINK-35008","OBJECT_ID":"2025-192E","EPOCH":"2026-03-09T22:00:01.999584","MEAN_MOTION":15.30164779,"ECCENTRICITY":0.00010153,"INCLINATION":53.1577,"RA_OF_ASC_NODE":231.3051,"ARG_OF_PERICENTER":78.1444,"MEAN_ANOMALY":110.8383,"EPHEMERIS_TYPE":0,"CLASSIFICATION_TYPE":"U","NORAD_CAT_ID":65408,"ELEMENT_SET_NO":999,"REV_AT_EPOCH":578,"BSTAR":0.0027990517,"MEAN_MOTION_DOT":0.00083384,"MEAN_MOTION_DDOT":0}]
